KUIPER-00035            
1 63748U 25088AA  25197.25002315 -.01190998  00000+0 -68520-1 0  9993
2 63748  51.8789  84.0864 0004079  65.6976 288.2166 15.15012075 12426
KUIPER-00037            
1 63749U 25088AB  25197.25002315 -.00001890  00000+0 -82545-4 0  9991
2 63749  51.8813  83.5781 0003588 328.8109 218.8023 15.15450561 13229
KUIPER-00038            
1 63750U 25088AC  25196.93587638  .00011908  00000+0  32875-3 0  9992
2 63750  51.8707  81.2364 0004890  40.3663 319.7686 15.37491158 12230
KUIPER-00039            
1 64500U 25134A   25196.78853574  .00018347  00000+0  54615-3 0  9996
2 64500  51.8676 223.4058 0007395 191.5031 168.5786 15.34736195  4670
KUIPER-00040            
1 64501U 25134B   25196.80153446  .00014952  00000+0  45961-3 0  9993
2 64501  51.8656 223.4847 0010931 205.9397 154.1042 15.33849147  4677
KUIPER-00041            
1 64502U 25134C   25197.16668981 -.00031777  00000+0 -10501-2 0  9996
2 64502  51.8703 221.6728 0009140 206.9124  33.9224 15.30583307  4269
KUIPER-00042            
1 64503U 25134D   25196.79297327  .00015814  00000+0  47642-3 0  9996
2 64503  51.8646 223.4311 0008662 194.7852 165.2881 15.34461875  4676
KUIPER-00043            
1 64504U 25134E   25196.78960258  .00016079  00000+0  48137-3 0  9990
2 64504  51.8686 223.4128 0007928 188.1771 171.9086 15.34653127  4672
